GOMX-1                  
1 39430U 13066Q   26115.81771683  .00001373  00000+0  21358-3 0  9996
2 39430  97.6529 319.5780 0127550 245.5389 113.2470 14.69258291662221
BRITE-PL1 (LEM)         
1 39431U 13066R   26115.58916431  .00000892  00000+0  18666-3 0  9996
2 39431  97.7894 231.7167 0190634 174.4417 185.8958 14.51288125656305
ICUBE-1                 
1 39432U 13066S   26115.70511124  .00013530  00000+0  55095-3 0  9991
2 39432  97.5681 100.7824 0018034 149.4093 210.8200 15.24465194676415
VELOX-PII               
1 39438U 13066Y   26115.82375528  .00002839  00000+0  27274-3 0  9994
2 39438  97.8708  67.1548 0053793 154.7538 205.6328 14.92787310670022
CUBEBUG-2 (LO-74)       
1 39440U 13066AA  26115.80650799  .00003736  00000+0  35043-3 0  9991
2 39440  97.8871  64.5922 0057328 199.5050 160.3976 14.93386841669172
NEE-02 KRYSAOR          
1 39441U 13066AB  26115.77236895  .00001541  00000+0  17450-3 0  9999
2 39441  97.8866  55.3782 0064892 241.0668 118.4030 14.86426759668417
FUNCUBE-1 (AO-73)       
1 39444U 13066AE  26115.80844813  .00010811  00000+0  68138-3 0  9990
2 39444  97.8237  86.2005 0037585  24.7149 335.5869 15.08732699671764
HINCUBE                 
1 39445U 13066AF  26115.86306213  .00010548  00000+0  68827-3 0  9996
2 39445  97.7928  83.6406 0034457  31.3885 328.9389 15.07561723671640
UWE-3                   
1 39446U 13066AG  26115.80487762  .00003635  00000+0  31656-3 0  9999
2 39446  97.8653  71.5585 0050421 133.2329 227.3118 14.96583512669742
SMDC ONE 2.4            
1 39469U 13072H   26115.82920838  .00012487  00000+0  50235-3 0  9998
2 39469 120.4889 150.1135 0137664 321.7468  37.3904 15.17170029109884
CP8 (IPEX)              
1 39471U 13072K   26115.78668796  .00008607  00000+0  44187-3 0  9996
2 39471 120.4638  99.5050 0157863 305.4553  53.1870 15.07388247107336
COSMOS 2488 (RODNIK-S 7)
1 39483U 13076A   26115.79591027  .00000031  00000+0  15043-3 0  9998
2 39483  82.4868 201.3317 0019220 206.1679 153.8431 12.42903855559381
COSMOS 2489 (RODNIK-S 8)
1 39484U 13076B   26115.77002311 -.00000020  00000+0 -21366-3 0  9995
2 39484  82.4904 202.7091 0021047 206.4395 153.5612 12.42878774559430
COSMOS 2490 (RODNIK-S 9)
1 39485U 13076C   26115.82231360  .00000009  00000+0 -44215-5 0  9996
2 39485  82.4852 200.7671 0020856 222.4460 137.5008 12.42876095559371
AIST-1 (RS41)           
1 39492U 13078C   26115.85456907  .00001574  00000+0  13788-3 0  9991
2 39492  82.4151 321.5764 0018381  92.2803 268.0523 14.95920254667425
KAZEOSAT 1              
1 39731U 14024A   26115.77467166  .00000066  00000+0  32963-4 0  9991
2 39731  98.3216 189.5206 0001427  98.7562 261.3790 14.42057788631000
