[{"OBJECT_NAME":"GOMX-1","OBJECT_ID":"2013-066Q","EPOCH":"2026-04-25T19:37:30.734112","MEAN_MOTION":14.69258291,"ECCENTRICITY":0.012755,"INCLINATION":97.6529,"RA_OF_ASC_NODE":319.578,"ARG_OF_PERICENTER":245.5389,"MEAN_ANOMALY":113.247,"EPHEMERIS_TYPE":0,"CLASSIFICATION_TYPE":"U","NORAD_CAT_ID":39430,"ELEMENT_SET_NO":999,"REV_AT_EPOCH":66222,"BSTAR":0.00021358,"MEAN_MOTION_DOT":1.373e-5,"MEAN_MOTION_DDOT":0},{"OBJECT_NAME":"BRITE-PL1 (LEM)","OBJECT_ID":"2013-066R","EPOCH":"2026-04-25T14:08:23.796384","MEAN_MOTION":14.51288125,"ECCENTRICITY":0.0190634,"INCLINATION":97.7894,"RA_OF_ASC_NODE":231.7167,"ARG_OF_PERICENTER":174.4417,"MEAN_ANOMALY":185.8958,"EPHEMERIS_TYPE":0,"CLASSIFICATION_TYPE":"U","NORAD_CAT_ID":39431,"ELEMENT_SET_NO":999,"REV_AT_EPOCH":65630,"BSTAR":0.00018666,"MEAN_MOTION_DOT":8.92e-6,"MEAN_MOTION_DDOT":0},{"OBJECT_NAME":"ICUBE-1","OBJECT_ID":"2013-066S","EPOCH":"2026-04-25T16:55:21.611136","MEAN_MOTION":15.24465194,"ECCENTRICITY":0.0018034,"INCLINATION":97.5681,"RA_OF_ASC_NODE":100.7824,"ARG_OF_PERICENTER":149.4093,"MEAN_ANOMALY":210.82,"EPHEMERIS_TYPE":0,"CLASSIFICATION_TYPE":"U","NORAD_CAT_ID":39432,"ELEMENT_SET_NO":999,"REV_AT_EPOCH":67641,"BSTAR":0.00055095,"MEAN_MOTION_DOT":0.0001353,"MEAN_MOTION_DDOT":0},{"OBJECT_NAME":"VELOX-PII","OBJECT_ID":"2013-066Y","EPOCH":"2026-04-25T19:46:12.456192","MEAN_MOTION":14.9278731,"ECCENTRICITY":0.0053793,"INCLINATION":97.8708,"RA_OF_ASC_NODE":67.1548,"ARG_OF_PERICENTER":154.7538,"MEAN_ANOMALY":205.6328,"EPHEMERIS_TYPE":0,"CLASSIFICATION_TYPE":"U","NORAD_CAT_ID":39438,"ELEMENT_SET_NO":999,"REV_AT_EPOCH":67002,"BSTAR":0.00027274,"MEAN_MOTION_DOT":2.839e-5,"MEAN_MOTION_DDOT":0},{"OBJECT_NAME":"CUBEBUG-2 (LO-74)","OBJECT_ID":"2013-066AA","EPOCH":"2026-04-25T19:21:22.290336","MEAN_MOTION":14.93386841,"ECCENTRICITY":0.0057328,"INCLINATION":97.8871,"RA_OF_ASC_NODE":64.5922,"ARG_OF_PERICENTER":199.505,"MEAN_ANOMALY":160.3976,"EPHEMERIS_TYPE":0,"CLASSIFICATION_TYPE":"U","NORAD_CAT_ID":39440,"ELEMENT_SET_NO":999,"REV_AT_EPOCH":66917,"BSTAR":0.00035043,"MEAN_MOTION_DOT":3.736e-5,"MEAN_MOTION_DDOT":0},{"OBJECT_NAME":"NEE-02 KRYSAOR","OBJECT_ID":"2013-066AB","EPOCH":"2026-04-25T18:32:12.677280","MEAN_MOTION":14.86426759,"ECCENTRICITY":0.0064892,"INCLINATION":97.8866,"RA_OF_ASC_NODE":55.3782,"ARG_OF_PERICENTER":241.0668,"MEAN_ANOMALY":118.403,"EPHEMERIS_TYPE":0,"CLASSIFICATION_TYPE":"U","NORAD_CAT_ID":39441,"ELEMENT_SET_NO":999,"REV_AT_EPOCH":66841,"BSTAR":0.0001745,"MEAN_MOTION_DOT":1.541e-5,"MEAN_MOTION_DDOT":0},{"OBJECT_NAME":"FUNCUBE-1 (AO-73)","OBJECT_ID":"2013-066AE","EPOCH":"2026-04-25T19:24:09.918432","MEAN_MOTION":15.08732699,"ECCENTRICITY":0.0037585,"INCLINATION":97.8237,"RA_OF_ASC_NODE":86.2005,"ARG_OF_PERICENTER":24.7149,"MEAN_ANOMALY":335.5869,"EPHEMERIS_TYPE":0,"CLASSIFICATION_TYPE":"U","NORAD_CAT_ID":39444,"ELEMENT_SET_NO":999,"REV_AT_EPOCH":67176,"BSTAR":0.00068138,"MEAN_MOTION_DOT":0.00010811,"MEAN_MOTION_DDOT":0},{"OBJECT_NAME":"HINCUBE","OBJECT_ID":"2013-066AF","EPOCH":"2026-04-25T20:42:48.568032","MEAN_MOTION":15.07561723,"ECCENTRICITY":0.0034457,"INCLINATION":97.7928,"RA_OF_ASC_NODE":83.6406,"ARG_OF_PERICENTER":31.3885,"MEAN_ANOMALY":328.9389,"EPHEMERIS_TYPE":0,"CLASSIFICATION_TYPE":"U","NORAD_CAT_ID":39445,"ELEMENT_SET_NO":999,"REV_AT_EPOCH":67164,"BSTAR":0.00068827,"MEAN_MOTION_DOT":0.00010548,"MEAN_MOTION_DDOT":0},{"OBJECT_NAME":"UWE-3","OBJECT_ID":"2013-066AG","EPOCH":"2026-04-25T19:19:01.426368","MEAN_MOTION":14.96583512,"ECCENTRICITY":0.0050421,"INCLINATION":97.8653,"RA_OF_ASC_NODE":71.5585,"ARG_OF_PERICENTER":133.2329,"MEAN_ANOMALY":227.3118,"EPHEMERIS_TYPE":0,"CLASSIFICATION_TYPE":"U","NORAD_CAT_ID":39446,"ELEMENT_SET_NO":999,"REV_AT_EPOCH":66974,"BSTAR":0.00031656,"MEAN_MOTION_DOT":3.635e-5,"MEAN_MOTION_DDOT":0},{"OBJECT_NAME":"SMDC ONE 2.4","OBJECT_ID":"2013-072H","EPOCH":"2026-04-25T19:54:03.604032","MEAN_MOTION":15.17170029,"ECCENTRICITY":0.0137664,"INCLINATION":120.4889,"RA_OF_ASC_NODE":150.1135,"ARG_OF_PERICENTER":321.7468,"MEAN_ANOMALY":37.3904,"EPHEMERIS_TYPE":0,"CLASSIFICATION_TYPE":"U","NORAD_CAT_ID":39469,"ELEMENT_SET_NO":999,"REV_AT_EPOCH":10988,"BSTAR":0.00050235,"MEAN_MOTION_DOT":0.00012487,"MEAN_MOTION_DDOT":0},{"OBJECT_NAME":"CP8 (IPEX)","OBJECT_ID":"2013-072K","EPOCH":"2026-04-25T18:52:49.839744","MEAN_MOTION":15.07388247,"ECCENTRICITY":0.0157863,"INCLINATION":120.4638,"RA_OF_ASC_NODE":99.505,"ARG_OF_PERICENTER":305.4553,"MEAN_ANOMALY":53.187,"EPHEMERIS_TYPE":0,"CLASSIFICATION_TYPE":"U","NORAD_CAT_ID":39471,"ELEMENT_SET_NO":999,"REV_AT_EPOCH":10733,"BSTAR":0.00044187,"MEAN_MOTION_DOT":8.607e-5,"MEAN_MOTION_DDOT":0},{"OBJECT_NAME":"COSMOS 2488 (RODNIK-S 7)","OBJECT_ID":"2013-076A","EPOCH":"2026-04-25T19:06:06.647328","MEAN_MOTION":12.42903855,"ECCENTRICITY":0.001922,"INCLINATION":82.4868,"RA_OF_ASC_NODE":201.3317,"ARG_OF_PERICENTER":206.1679,"MEAN_ANOMALY":153.8431,"EPHEMERIS_TYPE":0,"CLASSIFICATION_TYPE":"U","NORAD_CAT_ID":39483,"ELEMENT_SET_NO":999,"REV_AT_EPOCH":55938,"BSTAR":0.00015043,"MEAN_MOTION_DOT":3.1e-7,"MEAN_MOTION_DDOT":0},{"OBJECT_NAME":"COSMOS 2489 (RODNIK-S 8)","OBJECT_ID":"2013-076B","EPOCH":"2026-04-25T18:28:49.996704","MEAN_MOTION":12.42878774,"ECCENTRICITY":0.0021047,"INCLINATION":82.4904,"RA_OF_ASC_NODE":202.7091,"ARG_OF_PERICENTER":206.4395,"MEAN_ANOMALY":153.5612,"EPHEMERIS_TYPE":0,"CLASSIFICATION_TYPE":"U","NORAD_CAT_ID":39484,"ELEMENT_SET_NO":999,"REV_AT_EPOCH":55943,"BSTAR":-0.00021366,"MEAN_MOTION_DOT":-2.0e-7,"MEAN_MOTION_DDOT":0},{"OBJECT_NAME":"COSMOS 2490 (RODNIK-S 9)","OBJECT_ID":"2013-076C","EPOCH":"2026-04-25T19:44:07.895040","MEAN_MOTION":12.42876095,"ECCENTRICITY":0.0020856,"INCLINATION":82.4852,"RA_OF_ASC_NODE":200.7671,"ARG_OF_PERICENTER":222.446,"MEAN_ANOMALY":137.5008,"EPHEMERIS_TYPE":0,"CLASSIFICATION_TYPE":"U","NORAD_CAT_ID":39485,"ELEMENT_SET_NO":999,"REV_AT_EPOCH":55937,"BSTAR":-4.4215e-6,"MEAN_MOTION_DOT":9.0e-8,"MEAN_MOTION_DDOT":0},{"OBJECT_NAME":"AIST-1 (RS41)","OBJECT_ID":"2013-078C","EPOCH":"2026-04-25T20:30:34.767648","MEAN_MOTION":14.95920254,"ECCENTRICITY":0.0018381,"INCLINATION":82.4151,"RA_OF_ASC_NODE":321.5764,"ARG_OF_PERICENTER":92.2803,"MEAN_ANOMALY":268.0523,"EPHEMERIS_TYPE":0,"CLASSIFICATION_TYPE":"U","NORAD_CAT_ID":39492,"ELEMENT_SET_NO":999,"REV_AT_EPOCH":66742,"BSTAR":0.00013788,"MEAN_MOTION_DOT":1.574e-5,"MEAN_MOTION_DDOT":0},{"OBJECT_NAME":"KAZEOSAT 1","OBJECT_ID":"2014-024A","EPOCH":"2026-04-25T18:35:31.631424","MEAN_MOTION":14.42057788,"ECCENTRICITY":0.0001427,"INCLINATION":98.3216,"RA_OF_ASC_NODE":189.5206,"ARG_OF_PERICENTER":98.7562,"MEAN_ANOMALY":261.379,"EPHEMERIS_TYPE":0,"CLASSIFICATION_TYPE":"U","NORAD_CAT_ID":39731,"ELEMENT_SET_NO":999,"REV_AT_EPOCH":63100,"BSTAR":3.2963e-5,"MEAN_MOTION_DOT":6.6e-7,"MEAN_MOTION_DDOT":0}]
